LANDSAT 9               
1 49260U 21088A   24049.13700946  .00000818  00000+0  19144-3 0  9997
2 49260  98.2008 120.7224 0001124 109.4727 250.6593 14.57134110127205
